*******************************************************************************
JPL/HORIZONS                869 Mellena (A917 JB)          2023-Sep-04 11:08:51
Rec #:     869 (+COV) Soln.date: 2023-Aug-24_22:18:38   # obs: 8428 (1917-2023)
 
IAU76/J2000 helio. ecliptic osc. elements (au, days, deg., period=Julian yrs):
 
  EPOCH=  2457636.5 ! 2016-Sep-05.00 (TDB)         Residual RMS= .26151
   EC= .2198635403607878   QR= 2.098217306711122   TP= 2456986.1616192614
   OM= 154.9205891345405   W=  107.2402166319844   IN= 7.837364250078681
   A= 2.689551655721205    MA= 145.3194095311123   ADIST= 3.280886004731288
   PER= 4.41091            N= .223451996           ANGMOM= .027520879
   DAN= 2.73795            DDN= 2.40296            L= 262.3136002
   B= 7.4831716            MOID= 1.09809005        TP= 2014-Nov-24.6616192614
 
Asteroid physical parameters (km, seconds, rotational period in hours):
   GM= n.a.                RAD= 10.5965            ROTPER= 6.5155
   H= 12.12                G= .150                 B-V= n.a.
                           ALBEDO= .065            STYP= n.a.

ASTEROID comments: 
1: soln ref.= JPL#63, OCC=0
2: source=ORB
*******************************************************************************


*******************************************************************************
Ephemeris / API_USER Mon Sep  4 11:08:51 2023 Pasadena, USA      / Horizons
*******************************************************************************
Target body name: 869 Mellena (A917 JB)           {source: JPL#63}
Center body name: Solar System Barycenter (0)     {source: DE441}
Center-site name: BODY CENTER
*******************************************************************************
Start time      : A.D. 2023-Aug-12 00:00:00.0000 TDB
Stop  time      : A.D. 2023-Aug-13 00:00:00.0000 TDB
Step-size       : 2880 minutes
*******************************************************************************
Center geodetic : 0.0, 0.0, 0.0                   {E-lon(deg),Lat(deg),Alt(km)}
Center cylindric: 0.0, 0.0, 0.0                   {E-lon(deg),Dxy(km),Dz(km)}
Center radii    : (undefined)
Small perturbers: Yes                             {source: SB441-N16}
Output units    : KM-S
Calendar mode   : Mixed Julian/Gregorian
Output type     : GEOMETRIC cartesian states
Output format   : 2 (position and velocity)
Reference frame : Ecliptic of J2000.0
*******************************************************************************
Initial IAU76/J2000 heliocentric ecliptic osculating elements (au, days, deg.):
  EPOCH=  2457636.5 ! 2016-Sep-05.00 (TDB)         Residual RMS= .26151        
   EC= .2198635403607878   QR= 2.098217306711122   TP= 2456986.1616192614      
   OM= 154.9205891345405   W=  107.2402166319844   IN= 7.837364250078681       
  Equivalent ICRF heliocentric cartesian coordinates (au, au/d):
   X= 1.635870783808862E+00  Y= 2.673858446449960E+00  Z= 6.848621889622118E-01
  VX=-6.889713310750620E-03 VY= 4.856114764817321E-03 VZ= 1.838721247858779E-03
Asteroid physical parameters (km, seconds, rotational period in hours):        
   GM= n.a.                RAD= 10.5965            ROTPER= 6.5155              
   H= 12.12                G= .150                 B-V= n.a.                   
                           ALBEDO= .065            STYP= n.a.                  
*******************************************************************************
JDTDB
   X     Y     Z
   VX    VY    VZ
*******************************************************************************
$$SOE
2460168.500000000 = A.D. 2023-Aug-12 00:00:00.0000 TDB 
 X =-1.179543736831981E+08 Y =-2.906985429474978E+08 Z = 4.304654176793177E+07
 VX= 2.130172658477476E+01 VY=-7.550854985991715E+00 VZ=-3.058804967515871E-01
$$EOE
*******************************************************************************
 
TIME

  Barycentric Dynamical Time ("TDB" or T_eph) output was requested. This
continuous coordinate time is equivalent to the relativistic proper time
of a clock at rest in a reference frame co-moving with the solar system
barycenter but outside the system's gravity well. It is the independent
variable in the solar system relativistic equations of motion.

  TDB runs at a uniform rate of one SI second per second and is independent
of irregularities in Earth's rotation.
 
CALENDAR SYSTEM

  Mixed calendar mode was active such that calendar dates after AD 1582-Oct-15
(if any) are in the modern Gregorian system. Dates prior to 1582-Oct-5 (if any)
are in the Julian calendar system, which is automatically extended for dates
prior to its adoption on 45-Jan-1 BC.  The Julian calendar is useful for
matching historical dates. The Gregorian calendar more accurately corresponds
to the Earth's orbital motion and seasons. A "Gregorian-only" calendar mode is
available if such physical events are the primary interest.

REFERENCE FRAME AND COORDINATES

  Ecliptic at the standard reference epoch

    Reference epoch: J2000.0
    X-Y plane: adopted Earth orbital plane at the reference epoch
               Note: IAU76 obliquity of 84381.448 arcseconds wrt ICRF X-Y plane
    X-axis   : ICRF
    Z-axis   : perpendicular to the X-Y plane in the directional (+ or -) sense
               of Earth's north pole at the reference epoch.

  Symbol meaning:

    JDTDB    Julian Day Number, Barycentric Dynamical Time
      X      X-component of position vector (km)
      Y      Y-component of position vector (km)
      Z      Z-component of position vector (km)
      VX     X-component of velocity vector (km/sec)                           
      VY     Y-component of velocity vector (km/sec)                           
      VZ     Z-component of velocity vector (km/sec)                           

ABERRATIONS AND CORRECTIONS

 Geometric state vectors have NO corrections or aberrations applied.

Computations by ...

    Solar System Dynamics Group, Horizons On-Line Ephemeris System
    4800 Oak Grove Drive, Jet Propulsion Laboratory
    Pasadena, CA  91109   USA

    General site: https://ssd.jpl.nasa.gov/
    Mailing list: https://ssd.jpl.nasa.gov/email_list.html
    System news : https://ssd.jpl.nasa.gov/horizons/news.html
    User Guide  : https://ssd.jpl.nasa.gov/horizons/manual.html
    Connect     : browser        https://ssd.jpl.nasa.gov/horizons/app.html#/x
                  API            https://ssd-api.jpl.nasa.gov/doc/horizons.html
                  command-line   telnet ssd.jpl.nasa.gov 6775
                  e-mail/batch   https://ssd.jpl.nasa.gov/ftp/ssd/hrzn_batch.txt
                  scripts        https://ssd.jpl.nasa.gov/ftp/ssd/SCRIPTS
    Author      : Jon.D.Giorgini@jpl.nasa.gov
*******************************************************************************
